LEGION 1                
1 59625U 24081A   26193.82421988  .00002330  00000+0  12185-3 0  9992
2 59625  97.5015 271.4091 0007679 279.4111  80.6254 15.16835153121427
LEGION 2                
1 59626U 24081B   26193.78860102  .00002050  00000+0  10765-3 0  9994
2 59626  97.5015 271.4707 0010090 242.8369 117.1836 15.16813682121427
LEGION 3                
1 60452U 24146A   26193.63424897  .00001993  00000+0  11666-3 0  9992
2 60452  45.0011 254.1157 0008436 320.1785  39.8474 15.15646217105887
LEGION 4                
1 60453U 24146B   26193.83176774  .00002609  00000+0  14839-3 0  9993
2 60453  45.0029 344.9236 0008933  98.7680 261.4210 15.15670910104761
LEGION 5                
1 62900U 25025A   26193.30517459  .00001631  00000+0  96845-4 0  9992
2 62900  44.9997 166.7140 0008447 288.2536  71.7424 15.16061682 78302
LEGION 6                
1 62901U 25025B   26193.83095557  .00001609  00000+0  96720-4 0  9998
2 62901  45.0016  73.0350 0010830 264.5110  95.4533 15.15679663 79526
